KUIPER-00008            
1 63724U 25088A   25212.58335648 -.00020908  00000+0 -17027-2 0  9998
2 63724  51.8920  14.9479 0011749  78.3772 175.0887 14.98657336  5608
KUIPER-00009            
1 63725U 25088B   25212.58335648 -.00019594  00000+0 -10864-2 0  9990
2 63725  51.8811   8.4988 0011130  98.1136 113.5639 15.12805720  5093
KUIPER-00010            
1 63726U 25088C   25212.62984550  .00016026  00000+0  45743-3 0  9998
2 63726  51.8659   6.3384 0009592  90.7298 269.4787 15.36147534 14630
KUIPER-00011            
1 63727U 25088D   25212.59321282  .00014647  00000+0  42598-3 0  9994
2 63727  51.8585   6.7757 0011091  98.8669 261.3573 15.35620137 14767
KUIPER-00012            
1 63728U 25088E   25212.59097691  .00014451  00000+0  41838-3 0  9998
2 63728  51.8565   6.7487 0011326  99.9126 260.3138 15.35771925 14710
KUIPER-00013            
1 63729U 25088F   25212.58335648 -.00019556  00000+0 -10689-2 0  9997
2 63729  51.8814   9.1448 0006283  58.7561 197.8064 15.13353148  5175
KUIPER-00014            
1 63730U 25088G   25212.58335648 -.00021891  00000+0 -12340-2 0  9990
2 63730  51.8808  10.1528 0009322  90.5742  77.2926 15.12304512  4653
KUIPER-00015            
1 63731U 25088H   25212.58335648 -.01068064  00000+0 -14208+0 0  9997
2 63731  51.9049  19.2297 0011501  71.9637 214.3029 14.82149603  5689
